{"type": "FeatureCollection", "features": [ {"type": "Feature", "properties": {"norad_id": 38779, "name": "GSAT-10 (GAGAN/PRN 128)", "group": "gnss", "lat": 0.03475413188389267, "lon": -37.50295796854532, "alt_km": 35795.35459392558, "timestamp": "2025-12-23T09:49:07.325024+00:00", "meta": {"OBJECT_NAME": "GSAT-10 (GAGAN/PRN 128)", "OBJECT_ID": "2012-051B", "EPOCH": "2025-12-22T20:24:27.813024", "MEAN_MOTION": 1.00271679, "ECCENTRICITY": 0.00023196, "INCLINATION": 0.0677, "RA_OF_ASC_NODE": 263.3733, "ARG_OF_PERICENTER": 219.5003, "MEAN_ANOMALY": 357.9241, "EPHEMERIS_TYPE": 0, "CLASSIFICATION_TYPE": "U", "NORAD_CAT_ID": 38779, "ELEMENT_SET_NO": 999, "REV_AT_EPOCH": 4833, "BSTAR": 0, "MEAN_MOTION_DOT": -1.44e-06, "MEAN_MOTION_DDOT": 0}, "tle": {"line1": "1 38779U 12051B   25356.85032191 -.00000144  00000+0  00000+0 0  9991", "line2": "2 38779   0.0677 263.3733 0002319 219.5003 357.9241  1.00271679 48330"}}, "geometry": {"type": "Point", "coordinates": [-37.50295796854532, 0.03475413188389267]}}, {"type": "Feature", "properties": {"norad_id": 38833, "name": "GPS BIIF-3  (PRN 24)", "group": "gnss", "lat": 46.98233216637022, "lon": -156.85919124624476, "alt_km": 19709.40003036758, "timestamp": "2025-12-23T09:49:07.325036+00:00", "meta": {"OBJECT_NAME": "GPS BIIF-3  (PRN 24)", "OBJECT_ID": "2012-053A", "EPOCH": "2025-12-22T07:46:34.286880", "MEAN_MOTION": 2.0056507, "ECCENTRICITY": 0.0176029, "INCLINATION": 53.5595, "RA_OF_ASC_NODE": 150.8462, "ARG_OF_PERICENTER": 64.1364, "MEAN_ANOMALY": 297.6424, "EPHEMERIS_TYPE": 0, "CLASSIFICATION_TYPE": "U", "NORAD_CAT_ID": 38833, "ELEMENT_SET_NO": 999, "REV_AT_EPOCH": 9589, "BSTAR": 0, "MEAN_MOTION_DOT": 6.6e-07, "MEAN_MOTION_DDOT": 0}, "tle": {"line1": "1 38833U 12053A   25356.32400795  .00000066  00000+0  00000+0 0  9997", "line2": "2 38833  53.5595 150.8462 0176029  64.1364 297.6424  2.00565070 95894"}}, "geometry": {"type": "Point", "coordinates": [-156.85919124624476, 46.98233216637022]}}, {"type": "Feature", "properties": {"norad_id": 38857, "name": "GSAT0103 (GALILEO-FM3)", "group": "gnss", "lat": -42.94188682506036, "lon": 67.00288116628886, "alt_km": 23220.00494137236, "timestamp": "2025-12-23T09:49:07.325050+00:00", "meta": {"OBJECT_NAME": "GSAT0103 (GALILEO-FM3)", "OBJECT_ID": "2012-055A", "EPOCH": "2025-12-22T21:54:43.253568", "MEAN_MOTION": 1.70473351, "ECCENTRICITY": 0.00029953, "INCLINATION": 55.698, "RA_OF_ASC_NODE": 106.3873, "ARG_OF_PERICENTER": 269.858, "MEAN_ANOMALY": 90.0891, "EPHEMERIS_TYPE": 0, "CLASSIFICATION_TYPE": "U", "NORAD_CAT_ID": 38857, "ELEMENT_SET_NO": 999, "REV_AT_EPOCH": 8200, "BSTAR": 0, "MEAN_MOTION_DOT": 1e-07, "MEAN_MOTION_DDOT": 0}, "tle": {"line1": "1 38857U 12055A   25356.91300062  .00000010  00000+0  00000+0 0  9995", "line2": "2 38857  55.6980 106.3873 0002995 269.8580  90.0891  1.70473351 82005"}}, "geometry": {"type": "Point", "coordinates": [67.00288116628886, -42.94188682506036]}}, {"type": "Feature", "properties": {"norad_id": 38953, "name": "BEIDOU-2 G6 (C02)", "group": "gnss", "lat": -3.701926917073215, "lon": -36.724098507863296, "alt_km": 35762.59308251708, "timestamp": "2025-12-23T09:49:07.325062+00:00", "meta": {"OBJECT_NAME": "BEIDOU-2 G6 (C02)", "OBJECT_ID": "2012-059A", "EPOCH": "2025-12-22T20:24:42.788736", "MEAN_MOTION": 1.00268399, "ECCENTRICITY": 0.00083109, "INCLINATION": 3.9734, "RA_OF_ASC_NODE": 75.4078, "ARG_OF_PERICENTER": 292.2123, "MEAN_ANOMALY": 114.1262, "EPHEMERIS_TYPE": 0, "CLASSIFICATION_TYPE": "U", "NORAD_CAT_ID": 38953, "ELEMENT_SET_NO": 999, "REV_AT_EPOCH": 4814, "BSTAR": 0, "MEAN_MOTION_DOT": -1.55e-06, "MEAN_MOTION_DDOT": 0}, "tle": {"line1": "1 38953U 12059A   25356.85049524 -.00000155  00000+0  00000+0 0  9993", "line2": "2 38953   3.9734  75.4078 0008310 292.2123 114.1262  1.00268399 48142"}}, "geometry": {"type": "Point", "coordinates": [-36.724098507863296, -3.701926917073215]}}, {"type": "Feature", "properties": {"norad_id": 38977, "name": "LUCH 5B (SDCM/PRN 125)", "group": "gnss", "lat": 1.4793408526068772, "lon": -136.74621129300212, "alt_km": 35760.49601811241, "timestamp": "2025-12-23T09:49:07.325075+00:00", "meta": {"OBJECT_NAME": "LUCH 5B (SDCM/PRN 125)", "OBJECT_ID": "2012-061A", "EPOCH": "2025-12-22T21:38:50.690112", "MEAN_MOTION": 1.00272151, "ECCENTRICITY": 0.00065893, "INCLINATION": 10.1015, "RA_OF_ASC_NODE": 51.608, "ARG_OF_PERICENTER": 195.86, "MEAN_ANOMALY": 152.6173, "EPHEMERIS_TYPE": 0, "CLASSIFICATION_TYPE": "U", "NORAD_CAT_ID": 38977, "ELEMENT_SET_NO": 999, "REV_AT_EPOCH": 4783, "BSTAR": 0, "MEAN_MOTION_DOT": -1.21e-06, "MEAN_MOTION_DDOT": 0}, "tle": {"line1": "1 38977U 12061A   25356.90197558 -.00000121  00000+0  00000+0 0  9992", "line2": "2 38977  10.1015  51.6080 0006589 195.8600 152.6173  1.00272151 47837"}}, "geometry": {"type": "Point", "coordinates": [-136.74621129300212, 1.4793408526068772]}}, {"type": "Feature", "properties": {"norad_id": 39155, "name": "COSMOS 2485 (747)", "group": "gnss", "lat": 1.3108920196638099, "lon": 80.12406674296591, "alt_km": 19172.065211622525, "timestamp": "2025-12-23T09:49:07.325086+00:00", "meta": {"OBJECT_NAME": "COSMOS 2485 (747)", "OBJECT_ID": "2013-019A", "EPOCH": "2025-12-22T11:14:56.157792", "MEAN_MOTION": 2.13103251, "ECCENTRICITY": 0.00249447, "INCLINATION": 65.3184, "RA_OF_ASC_NODE": 79.5401, "ARG_OF_PERICENTER": 230.2875, "MEAN_ANOMALY": 129.5355, "EPHEMERIS_TYPE": 0, "CLASSIFICATION_TYPE": "U", "NORAD_CAT_ID": 39155, "ELEMENT_SET_NO": 999, "REV_AT_EPOCH": 9851, "BSTAR": 0, "MEAN_MOTION_DOT": -2e-08, "MEAN_MOTION_DDOT": 0}, "tle": {"line1": "1 39155U 13019A   25356.46870553 -.00000002  00000+0  00000+0 0  9997", "line2": "2 39155  65.3184  79.5401 0024944 230.2875 129.5355  2.13103251 98519"}}, "geometry": {"type": "Point", "coordinates": [80.12406674296591, 1.3108920196638099]}}, {"type": "Feature", "properties": {"norad_id": 39166, "name": "GPS BIIF-4  (PRN 27)", "group": "gnss", "lat": 12.780567612306726, "lon": 86.87441676314587, "alt_km": 20335.01642983634, "timestamp": "2025-12-23T09:49:07.325097+00:00", "meta": {"OBJECT_NAME": "GPS BIIF-4  (PRN 27)", "OBJECT_ID": "2013-023A", "EPOCH": "2025-12-22T04:30:56.781216", "MEAN_MOTION": 2.00564649, "ECCENTRICITY": 0.01384833, "INCLINATION": 54.6439, "RA_OF_ASC_NODE": 276.1841, "ARG_OF_PERICENTER": 48.7288, "MEAN_ANOMALY": 312.4984, "EPHEMERIS_TYPE": 0, "CLASSIFICATION_TYPE": "U", "NORAD_CAT_ID": 39166, "ELEMENT_SET_NO": 999, "REV_AT_EPOCH": 9233, "BSTAR": 0, "MEAN_MOTION_DOT": -1.5e-07, "MEAN_MOTION_DDOT": 0}, "tle": {"line1": "1 39166U 13023A   25356.18815719 -.00000015  00000+0  00000+0 0  9990", "line2": "2 39166  54.6439 276.1841 0138483  48.7288 312.4984  2.00564649 92335"}}, "geometry": {"type": "Point", "coordinates": [86.87441676314587, 12.780567612306726]}}, {"type": "Feature", "properties": {"norad_id": 39199, "name": "IRNSS-1A", "group": "gnss", "lat": -25.446238503243258, "lon": -71.47511964260077, "alt_km": 35687.576248903606, "timestamp": "2025-12-23T09:49:07.325109+00:00", "meta": {"OBJECT_NAME": "IRNSS-1A", "OBJECT_ID": "2013-034A", "EPOCH": "2025-12-22T18:33:45.913248", "MEAN_MOTION": 1.00272973, "ECCENTRICITY": 0.00245932, "INCLINATION": 35.3347, "RA_OF_ASC_NODE": 66.4064, "ARG_OF_PERICENTER": 215.1695, "MEAN_ANOMALY": 143.2435, "EPHEMERIS_TYPE": 0, "CLASSIFICATION_TYPE": "U", "NORAD_CAT_ID": 39199, "ELEMENT_SET_NO": 999, "REV_AT_EPOCH": 4559, "BSTAR": 0, "MEAN_MOTION_DOT": 7.6e-07, "MEAN_MOTION_DDOT": 0}, "tle": {"line1": "1 39199U 13034A   25356.77344807  .00000076  00000+0  00000+0 0  9994", "line2": "2 39199  35.3347  66.4064 0024593 215.1695 143.2435  1.00272973 45592"}}, "geometry": {"type": "Point", "coordinates": [-71.47511964260077, -25.446238503243258]}}, {"type": "Feature", "properties": {"norad_id": 39533, "name": "GPS BIIF-5  (PRN 30)", "group": "gnss", "lat": 12.497128056833272, "lon": -32.89398582150668, "alt_km": 20080.99458282221, "timestamp": "2025-12-23T09:49:07.325122+00:00", "meta": {"OBJECT_NAME": "GPS BIIF-5  (PRN 30)", "OBJECT_ID": "2014-008A", "EPOCH": "2025-12-20T16:28:24.690432", "MEAN_MOTION": 2.00548724, "ECCENTRICITY": 0.00795742, "INCLINATION": 53.6246, "RA_OF_ASC_NODE": 156.6308, "ARG_OF_PERICENTER": 226.1122, "MEAN_ANOMALY": 133.2164, "EPHEMERIS_TYPE": 0, "CLASSIFICATION_TYPE": "U", "NORAD_CAT_ID": 39533, "ELEMENT_SET_NO": 999, "REV_AT_EPOCH": 8610, "BSTAR": 0, "MEAN_MOTION_DOT": 6.5e-07, "MEAN_MOTION_DDOT": 0}, "tle": {"line1": "1 39533U 14008A   25354.68639688  .00000065  00000+0  00000+0 0  9998", "line2": "2 39533  53.6246 156.6308 0079574 226.1122 133.2164  2.00548724 86105"}}, "geometry": {"type": "Point", "coordinates": [-32.89398582150668, 12.497128056833272]}}, {"type": "Feature", "properties": {"norad_id": 39617, "name": "ASTRA 5B (EGNOS/PRN 123)", "group": "gnss", "lat": -0.06609403214422714, "lon": -97.04481459493381, "alt_km": 35768.0710853869, "timestamp": "2025-12-23T09:49:07.325134+00:00", "meta": {"OBJECT_NAME": "ASTRA 5B (EGNOS/PRN 123)", "OBJECT_ID": "2014-011B", "EPOCH": "2025-12-22T18:24:46.773792", "MEAN_MOTION": 1.00270415, "ECCENTRICITY": 0.00044932, "INCLINATION": 0.0437, "RA_OF_ASC_NODE": 7.1427, "ARG_OF_PERICENTER": 271.5569, "MEAN_ANOMALY": 112.5607, "EPHEMERIS_TYPE": 0, "CLASSIFICATION_TYPE": "U", "NORAD_CAT_ID": 39617, "ELEMENT_SET_NO": 999, "REV_AT_EPOCH": 4289, "BSTAR": 0, "MEAN_MOTION_DOT": 1.58e-06, "MEAN_MOTION_DDOT": 0}, "tle": {"line1": "1 39617U 14011B   25356.76720803  .00000158  00000+0  00000+0 0  9999", "line2": "2 39617   0.0437   7.1427 0004493 271.5569 112.5607  1.00270415 42893"}}, "geometry": {"type": "Point", "coordinates": [-97.04481459493381, -0.06609403214422714]}}]}